{
  "type": "FeatureCollection",
  "features": [
    {
      "type": "Feature",
      "properties": {
        "norad_id": 36036,
        "name": "SMOS",
        "group": "resource",
        "lat": -42.468385405642266,
        "lon": 171.43267457590133,
        "alt_km": 766.0819564497306,
        "timestamp": "2025-12-04T10:51:49.762754+00:00",
        "meta_object_name": "SMOS",
        "meta_object_id": "2009-059A",
        "meta_epoch": "2025-12-04T02:43:26.424192",
        "meta_mean_motion": 14.3979047,
        "meta_eccentricity": 0.0001022,
        "meta_inclination": 98.4384,
        "meta_ra_of_asc_node": 163.2893,
        "meta_arg_of_pericenter": 71.8401,
        "meta_mean_anomaly": 288.2899,
        "meta_ephemeris_type": 0,
        "meta_classification_type": "U",
        "meta_norad_cat_id": 36036,
        "meta_element_set_no": 999,
        "meta_rev_at_epoch": 84538,
        "meta_bstar": 0.00025734,
        "meta_mean_motion_dot": 7.64e-06,
        "meta_mean_motion_ddot": 0,
        "tle_line1": "1 36036U 09059A   25338.11350028  .00000764  00000+0  25734-3 0  9992",
        "tle_line2": "2 36036  98.4384 163.2893 0001022  71.8401 288.2899 14.39790470845382"
      },
      "geometry": {
        "type": "Point",
        "coordinates": [
          171.43267457590133,
          -42.468385405642266
        ]
      }
    },
    {
      "type": "Feature",
      "properties": {
        "norad_id": 36110,
        "name": "YAOGAN-7",
        "group": "resource",
        "lat": 81.9190594766404,
        "lon": 124.12808906648912,
        "alt_km": 642.1108418837612,
        "timestamp": "2025-12-04T10:51:49.762764+00:00",
        "meta_object_name": "YAOGAN-7",
        "meta_object_id": "2009-069A",
        "meta_epoch": "2025-12-04T03:57:12.938112",
        "meta_mean_motion": 14.77712701,
        "meta_eccentricity": 0.0023749,
        "meta_inclination": 98.0303,
        "meta_ra_of_asc_node": 219.9521,
        "meta_arg_of_pericenter": 310.28,
        "meta_mean_anomaly": 49.6334,
        "meta_ephemeris_type": 0,
        "meta_classification_type": "U",
        "meta_norad_cat_id": 36110,
        "meta_element_set_no": 999,
        "meta_rev_at_epoch": 86082,
        "meta_bstar": 0.00019969,
        "meta_mean_motion_dot": 1.384e-05,
        "meta_mean_motion_ddot": 0,
        "tle_line1": "1 36110U 09069A   25338.16473308  .00001384  00000+0  19969-3 0  9990",
        "tle_line2": "2 36110  98.0303 219.9521 0023749 310.2800  49.6334 14.77712701860824"
      },
      "geometry": {
        "type": "Point",
        "coordinates": [
          124.12808906648912,
          81.9190594766404
        ]
      }
    },
    {
      "type": "Feature",
      "properties": {
        "norad_id": 36605,
        "name": "TANDEM-X",
        "group": "resource",
        "lat": -2.7905527033115867,
        "lon": 163.5885056635826,
        "alt_km": 511.85156430400366,
        "timestamp": "2025-12-04T10:51:49.762774+00:00",
        "meta_object_name": "TANDEM-X",
        "meta_object_id": "2010-030A",
        "meta_epoch": "2025-12-03T15:05:32.620128",
        "meta_mean_motion": 15.19160106,
        "meta_eccentricity": 0.00017772,
        "meta_inclination": 97.4443,
        "meta_ra_of_asc_node": 343.1419,
        "meta_arg_of_pericenter": 93.6994,
        "meta_mean_anomaly": 266.4444,
        "meta_ephemeris_type": 0,
        "meta_classification_type": "U",
        "meta_norad_cat_id": 36605,
        "meta_element_set_no": 999,
        "meta_rev_at_epoch": 85695,
        "meta_bstar": 0.00010004139,
        "meta_mean_motion_dot": 2.035e-05,
        "meta_mean_motion_ddot": 0,
        "tle_line1": "1 36605U 10030A   25337.62884977  .00002035  00000+0  10004-3 0  9992",
        "tle_line2": "2 36605  97.4443 343.1419 0001777  93.6994 266.4444 15.19160106856953"
      },
      "geometry": {
        "type": "Point",
        "coordinates": [
          163.5885056635826,
          -2.7905527033115867
        ]
      }
    },
    {
      "type": "Feature",
      "properties": {
        "norad_id": 36795,
        "name": "CARTOSAT-2B",
        "group": "resource",
        "lat": -13.02674220460095,
        "lon": 29.565998686620823,
        "alt_km": 641.5479908729931,
        "timestamp": "2025-12-04T10:51:49.762784+00:00",
        "meta_object_name": "CARTOSAT-2B",
        "meta_object_id": "2010-035A",
        "meta_epoch": "2025-12-04T04:25:38.435232",
        "meta_mean_motion": 14.78768851,
        "meta_eccentricity": 0.0012883,
        "meta_inclination": 97.7865,
        "meta_ra_of_asc_node": 27.4923,
        "meta_arg_of_pericenter": 102.6911,
        "meta_mean_anomaly": 257.5741,
        "meta_ephemeris_type": 0,
        "meta_classification_type": "U",
        "meta_norad_cat_id": 36795,
        "meta_element_set_no": 999,
        "meta_rev_at_epoch": 83103,
        "meta_bstar": 0.00021271,
        "meta_mean_motion_dot": 1.515e-05,
        "meta_mean_motion_ddot": 0,
        "tle_line1": "1 36795U 10035A   25338.18447263  .00001515  00000+0  21271-3 0  9992",
        "tle_line2": "2 36795  97.7865  27.4923 0012883 102.6911 257.5741 14.78768851831034"
      },
      "geometry": {
        "type": "Point",
        "coordinates": [
          29.565998686620823,
          -13.02674220460095
        ]
      }
    },
    {
      "type": "Feature",
      "properties": {
        "norad_id": 36834,
        "name": "YAOGAN-10",
        "group": "resource",
        "lat": -72.21882430439531,
        "lon": 152.62623682938886,
        "alt_km": 623.3261883273753,
        "timestamp": "2025-12-04T10:51:49.762795+00:00",
        "meta_object_name": "YAOGAN-10",
        "meta_object_id": "2010-038A",
        "meta_epoch": "2025-12-03T19:57:32.552064",
        "meta_mean_motion": 14.84554289,
        "meta_eccentricity": 0.00015101,
        "meta_inclination": 97.915,
        "meta_ra_of_asc_node": 357.7191,
        "meta_arg_of_pericenter": 84.468,
        "meta_mean_anomaly": 92.504,
        "meta_ephemeris_type": 0,
        "meta_classification_type": "U",
        "meta_norad_cat_id": 36834,
        "meta_element_set_no": 999,
        "meta_rev_at_epoch": 82821,
        "meta_bstar": 0.00024459282,
        "meta_mean_motion_dot": 2.01e-05,
        "meta_mean_motion_ddot": 0,
        "tle_line1": "1 36834U 10038A   25337.83162676  .00002010  00000+0  24459-3 0  9994",
        "tle_line2": "2 36834  97.9150 357.7191 0001510  84.4680  92.5040 14.84554289828218"
      },
      "geometry": {
        "type": "Point",
        "coordinates": [
          152.62623682938886,
          -72.21882430439531
        ]
      }
    },
    {
      "type": "Feature",
      "properties": {
        "norad_id": 37216,
        "name": "COSMO-SKYMED 4",
        "group": "resource",
        "lat": -68.00827211151824,
        "lon": -40.15761116098493,
        "alt_km": 630.7523553601413,
        "timestamp": "2025-12-04T10:51:49.762805+00:00",
        "meta_object_name": "COSMO-SKYMED 4",
        "meta_object_id": "2010-060A",
        "meta_epoch": "2025-12-04T04:52:53.042880",
        "meta_mean_motion": 14.82152297,
        "meta_eccentricity": 0.0001394,
        "meta_inclination": 97.8808,
        "meta_ra_of_asc_node": 159.6552,
        "meta_arg_of_pericenter": 83.3337,
        "meta_mean_anomaly": 276.8034,
        "meta_ephemeris_type": 0,
        "meta_classification_type": "U",
        "meta_norad_cat_id": 37216,
        "meta_element_set_no": 999,
        "meta_rev_at_epoch": 81568,
        "meta_bstar": 0.00014285,
        "meta_mean_motion_dot": 1.085e-05,
        "meta_mean_motion_ddot": 0,
        "tle_line1": "1 37216U 10060A   25338.20339170  .00001085  00000+0  14285-3 0  9998",
        "tle_line2": "2 37216  97.8808 159.6552 0001394  83.3337 276.8034 14.82152297815687"
      },
      "geometry": {
        "type": "Point",
        "coordinates": [
          -40.15761116098493,
          -68.00827211151824
        ]
      }
    },
    {
      "type": "Feature",
      "properties": {
        "norad_id": 37387,
        "name": "RESOURCESAT-2",
        "group": "resource",
        "lat": -37.67764775827571,
        "lon": -144.82057844527466,
        "alt_km": 830.7037144309879,
        "timestamp": "2025-12-04T10:51:49.762816+00:00",
        "meta_object_name": "RESOURCESAT-2",
        "meta_object_id": "2011-015A",
        "meta_epoch": "2025-12-04T03:05:04.763040",
        "meta_mean_motion": 14.21591898,
        "meta_eccentricity": 0.000676,
        "meta_inclination": 98.7889,
        "meta_ra_of_asc_node": 41.7186,
        "meta_arg_of_pericenter": 64.7839,
        "meta_mean_anomaly": 295.4038,
        "meta_ephemeris_type": 0,
        "meta_classification_type": "U",
        "meta_norad_cat_id": 37387,
        "meta_element_set_no": 999,
        "meta_rev_at_epoch": 75846,
        "meta_bstar": 0.00016932,
        "meta_mean_motion_dot": 3.27e-06,
        "meta_mean_motion_ddot": 0,
        "tle_line1": "1 37387U 11015A   25338.12852735  .00000327  00000+0  16932-3 0  9995",
        "tle_line2": "2 37387  98.7889  41.7186 0006760  64.7839 295.4038 14.21591898758461"
      },
      "geometry": {
        "type": "Point",
        "coordinates": [
          -144.82057844527466,
          -37.67764775827571
        ]
      }
    }
  ]
}